NORAD_CAT_ID,OBJECT_NAME,OBJECT_TYPE,EPOCH,MEAN_MOTION,ECCENTRICITY,INCLINATION,RA_OF_ASC_NODE,ARG_OF_PERICENTER,MEAN_ANOMALY,BSTAR,MEAN_MOTION_DOT,MEAN_MOTION_DDOT,TLE_LINE0,TLE_LINE1,TLE_LINE2,SEMIMAJOR_AXIS,PERIOD,APOGEE,PERIGEE,DECAYED
50835.0,STARLINK-3310,PAYLOAD,2024-01-11 12:21:26,15.08841455,0.0001242,53.2161,117.4907,77.4804,282.6327,1.0816e-05,-1.16e-06,0.0,0 STARLINK-3310,1 50835U 22001AJ  24011.51488522 -.00000116  00000-0  10816-4 0  9998,2 50835  53.2161 117.4907 0001242  77.4804 282.6327 15.08841455112532,6917.876,95.437,540.6,538.882,0.0
50835.0,STARLINK-3310,PAYLOAD,2024-01-11 13:56:49,15.08843306,0.0001244,53.2157,117.193,88.3897,271.7237,3.1285e-05,2.1e-06,0.0,0 STARLINK-3310,1 50835U 22001AJ  24011.58112300  .00000210  00000-0  31285-4 0  9990,2 50835  53.2157 117.1930 0001244  88.3897 271.7237 15.08843306111282,6917.87,95.437,540.596,538.875,0.0
50835.0,STARLINK-3310,PAYLOAD,2024-01-12 13:47:36,15.08842765,0.000121,53.2158,112.7326,96.8407,263.2722,8.6991e-05,1.097e-05,0.0,0 STARLINK-3310,1 50835U 22001AJ  24012.57472375  .00001097  00000-0  86991-4 0  9999,2 50835  53.2158 112.7326 0001210  96.8407 263.2722 15.08842765111437,6917.872,95.437,540.574,538.9,0.0
50835.0,STARLINK-3310,PAYLOAD,2024-01-13 12:03:00,15.08838638,0.0001118,53.2163,108.5681,99.2218,260.89,7.1377e-06,-1.74e-06,0.0,0 STARLINK-3310,1 50835U 22001AJ  24013.50209080 -.00000174  00000-0  71377-5 0  9993,2 50835  53.2163 108.5681 0001118  99.2218 260.8900 15.08838638112834,6917.885,95.438,540.523,538.976,0.0
50835.0,STARLINK-3310,PAYLOAD,2024-01-13 13:38:23,15.08842666,0.0001232,53.2172,108.2693,76.2206,283.8923,4.1945e-05,3.8e-06,0.0,0 STARLINK-3310,1 50835U 22001AJ  24013.56832773  .00000380  00000-0  41945-4 0  9995,2 50835  53.2172 108.2693 0001232  76.2206 283.8923 15.08842666111580,6917.872,95.437,540.59,538.885,0.0
50835.0,STARLINK-3310,PAYLOAD,2024-01-13 15:13:46,15.08843902,0.0001239,53.2174,107.9716,78.3533,281.7598,5.1208e-05,5.27e-06,0.0,0 STARLINK-3310,1 50835U 22001AJ  24013.63456655  .00000527  00000-0  51208-4 0  9990,2 50835  53.2174 107.9716 0001239  78.3533 281.7598 15.08843902112857,6917.868,95.437,540.591,538.876,0.0
50835.0,STARLINK-3310,PAYLOAD,2024-01-14 13:29:10,15.08835453,0.0001295,53.2178,103.8109,72.5394,287.574,0.00017056,2.427e-05,0.0,0 STARLINK-3310,1 50835U 22001AJ  24014.56193089  .00002427  00000-0  17056-3 0  9995,2 50835  53.2178 103.8109 0001295  72.5394 287.5740 15.08835453112995,6917.894,95.438,540.655,538.863,0.0
50835.0,STARLINK-3310,PAYLOAD,2024-01-15 11:44:34,15.08850033,0.00014,53.2165,99.6491,72.7188,287.3957,9.8085e-05,1.274e-05,0.0,0 STARLINK-3310,1 50835U 22001AJ  24015.48928417  .00001274  00000-0  98085-4 0  9999,2 50835  53.2165  99.6491 0001400  72.7188 287.3957 15.08850033113134,6917.85,95.437,540.683,538.746,0.0
50835.0,STARLINK-3310,PAYLOAD,2024-01-16 11:35:22,15.08842359,0.0001507,53.2164,95.1895,81.9594,278.1569,-5.7139e-05,-1.197e-05,0.0,0 STARLINK-3310,1 50835U 22001AJ  24016.48289460 -.00001197  00000-0 -57139-4 0  9999,2 50835  53.2164  95.1895 0001507  81.9594 278.1569 15.08842359113288,6917.873,95.437,540.781,538.696,0.0
50835.0,STARLINK-3310,PAYLOAD,2024-01-16 13:10:45,15.0884344,0.0001563,53.2167,94.8909,89.2982,270.8189,-4.8407e-05,-1.058e-05,0.0,0 STARLINK-3310,1 50835U 22001AJ  24016.54913315 -.00001058  00000-0 -48407-4 0  9993,2 50835  53.2167  94.8909 0001563  89.2982 270.8189 15.08843440112038,6917.87,95.437,540.816,538.654,0.0
50835.0,STARLINK-3310,PAYLOAD,2024-01-16 14:46:07,15.08846457,0.000144,53.2171,94.5919,95.4072,264.7084,-2.2226e-05,-6.42e-06,0.0,0 STARLINK-3310,1 50835U 22001AJ  24016.61536958 -.00000642  00000-0 -22226-4 0  9994,2 50835  53.2171  94.5919 0001440  95.4072 264.7084 15.08846457112042,6917.861,95.437,540.722,538.729,0.0
50835.0,STARLINK-3310,PAYLOAD,2024-01-17 11:26:07,15.0885747,0.0001516,53.2173,90.7274,96.7797,263.3367,8.2453e-05,1.025e-05,0.0,0 STARLINK-3310,1 50835U 22001AJ  24017.47647611  .00001025  00000-0  82453-4 0  9990,2 50835  53.2173  90.7274 0001516  96.7797 263.3367 15.08857470113438,6917.827,95.436,540.741,538.643,0.0
50835.0,STARLINK-3310,PAYLOAD,2024-01-18 04:55:19,15.088852,0.0002602,53.2182,87.4534,142.6736,217.4438,0.0003626,5.494e-05,0.0,0 STARLINK-3310,1 50835U 22001AJ  24018.20508211  .00005494  00000-0  36260-3 0  9992,2 50835  53.2182  87.4534 0002602 142.6736 217.4438 15.08885200113544,6917.742,95.435,541.407,537.807,0.0
50835.0,STARLINK-3310,PAYLOAD,2024-01-18 11:16:56,15.08818614,0.0001392,53.2171,86.2659,89.3764,270.7388,-0.00014919,-2.66e-05,0.0,0 STARLINK-3310,1 50835U 22001AJ  24018.47010142 -.00002660  00000-0 -14919-3 0  9993,2 50835  53.2171  86.2659 0001392  89.3764 270.7388 15.08818614113585,6917.946,95.439,540.774,538.848,0.0
50835.0,STARLINK-3310,PAYLOAD,2024-01-18 19:13:52,15.08823172,0.0001336,53.218,84.7791,91.0674,269.0471,-0.00014587,-2.608e-05,0.0,0 STARLINK-3310,1 50835U 22001AJ  24018.80130072 -.00002608  00000-0 -14587-3 0  9998,2 50835  53.2180  84.7791 0001336  91.0674 269.0471 15.08823172112378,6917.932,95.439,540.721,538.873,0.0
50835.0,STARLINK-3310,PAYLOAD,2024-01-19 00:00:01,15.08825121,0.0001239,53.2167,83.8876,106.1567,253.9562,-0.00014263,-2.556e-05,0.0,0 STARLINK-3310,1 50835U 22001AJ  24019.00002040 -.00002556  00000-0 -14263-3 0  9997,2 50835  53.2167  83.8876 0001239 106.1567 253.9562 15.08825121113660,6917.926,95.438,540.648,538.934,0.0
50835.0,STARLINK-3310,PAYLOAD,2024-01-19 11:07:42,15.08841185,0.0001557,53.2168,81.8093,92.9812,267.1359,-9.0292e-05,-1.725e-05,0.0,0 STARLINK-3310,1 50835U 22001AJ  24019.46369136 -.00001725  00000-0 -90292-4 0  9993,2 50835  53.2168  81.8093 0001557  92.9812 267.1359 15.08841185113735,6917.877,95.437,540.819,538.665,0.0
50835.0,STARLINK-3310,PAYLOAD,2024-01-20 09:23:06,15.08851435,0.0001363,53.2167,77.6457,80.6914,279.4232,-0.00027382,-4.645e-05,0.0,0 STARLINK-3310,1 50835U 22001AJ  24020.39105015 -.00004645  00000-0 -27382-3 0  9994,2 50835  53.2167  77.6457 0001363  80.6914 279.4232 15.08851435112614,6917.845,95.437,540.653,538.768,0.0
50835.0,STARLINK-3310,PAYLOAD,2024-01-20 23:41:36,15.08826758,0.0001377,53.2172,74.9685,94.4186,265.6963,0.00021813,3.184e-05,0.0,0 STARLINK-3310,1 50835U 22001AJ  24020.98722259  .00003184  00000-0  21813-3 0  9992,2 50835  53.2172  74.9685 0001377  94.4186 265.6963 15.08826758113969,6917.921,95.438,540.738,538.833,0.0
50835.0,STARLINK-3310,PAYLOAD,2024-01-21 12:24:40,15.08842667,0.0001452,53.2162,72.5876,91.267,268.8489,0.00016168,2.286e-05,0.0,0 STARLINK-3310,1 50835U 22001AJ  24021.51713943  .00002286  00000-0  16168-3 0  9991,2 50835  53.2162  72.5876 0001452  91.2670 268.8489 15.08842667114046,6917.872,95.437,540.742,538.733,0.0
50835.0,STARLINK-3310,PAYLOAD,2024-01-21 23:32:23,15.08841645,0.0001687,53.2159,70.5056,99.7081,260.4102,-7.2257e-05,-1.438e-05,0.0,0 STARLINK-3310,1 50835U 22001AJ  24021.98082200 -.00001438  00000-0 -72257-4 0  9999,2 50835  53.2159  70.5056 0001687  99.7081 260.4102 15.08841645112851,6917.875,95.437,540.907,538.573,0.0
50835.0,STARLINK-3310,PAYLOAD,2024-01-22 10:40:04,15.08846847,0.0001637,53.2162,68.4279,85.852,274.2659,0.00022479,3.292e-05,0.0,0 STARLINK-3310,1 50835U 22001AJ  24022.44450061  .00003292  00000-0  22479-3 0  9993,2 50835  53.2162  68.4279 0001637  85.8520 274.2659 15.08846847112924,6917.859,95.437,540.857,538.592,0.0
50835.0,STARLINK-3310,PAYLOAD,2024-01-23 08:55:29,15.08839005,0.0001837,53.2175,64.2653,93.6442,266.4761,0.00010901,1.447e-05,0.0,0 STARLINK-3310,1 50835U 22001AJ  24023.37186490  .00001447  00000-0  10901-3 0  9995,2 50835  53.2175  64.2653 0001837  93.6442 266.4761 15.08839005114321,6917.883,95.438,541.019,538.478,0.0
50835.0,STARLINK-3310,PAYLOAD,2024-01-24 08:46:16,15.08841532,0.0001619,53.2189,59.8106,93.8893,266.2284,4.086e-05,3.62e-06,0.0,0 STARLINK-3310,1 50835U 22001AJ  24024.36546614  .00000362  00000-0  40860-4 0  9996,2 50835  53.2189  59.8106 0001619  93.8893 266.2284 15.08841532113212,6917.876,95.437,540.861,538.621,0.0
50835.0,STARLINK-3310,PAYLOAD,2024-01-25 08:37:03,15.08836384,0.000175,53.2187,55.3502,104.1373,255.9814,6.9722e-05,8.22e-06,0.0,0 STARLINK-3310,1 50835U 22001AJ  24025.35906999  .00000822  00000-0  69722-4 0  9991,2 50835  53.2187  55.3502 0001750 104.1373 255.9814 15.08836384114625,6917.891,95.438,540.967,538.546,0.0
50835.0,STARLINK-3310,PAYLOAD,2024-01-26 08:27:50,15.0884602,0.000178,53.2189,50.8877,107.4195,252.6992,0.00016708,2.372e-05,0.0,0 STARLINK-3310,1 50835U 22001AJ  24026.35266253  .00002372  00000-0  16708-3 0  9991,2 50835  53.2189  50.8877 0001780 107.4195 252.6992 15.08846020114778,6917.862,95.437,540.958,538.496,0.0
50835.0,STARLINK-3310,PAYLOAD,2024-01-27 11:29:26,15.08820694,0.0001338,53.2179,45.8317,67.5341,292.5793,-6.2651e-05,-1.284e-05,0.0,0 STARLINK-3310,1 50835U 22001AJ  24027.47877343 -.00001284  00000-0 -62651-4 0  9995,2 50835  53.2179  45.8317 0001338  67.5341 292.5793 15.08820694114948,6917.939,95.439,540.73,538.879,0.0
50835.0,STARLINK-3310,PAYLOAD,2024-01-28 04:58:38,15.08852096,0.0001828,53.2177,42.551,90.0608,270.0593,6.5168e-05,7.49e-06,0.0,0 STARLINK-3310,1 50835U 22001AJ  24028.20739070  .00000749  00000-0  65168-4 0  9990,2 50835  53.2177  42.5510 0001828  90.0608 270.0593 15.08852096115059,6917.843,95.437,540.973,538.444,0.0
50835.0,STARLINK-3310,PAYLOAD,2024-01-28 11:20:10,15.08855751,0.0001735,53.2184,41.3624,78.0219,282.0968,0.00013504,1.863e-05,0.0,0 STARLINK-3310,1 50835U 22001AJ  24028.47234675  .00001863  00000-0  13504-3 0  9994,2 50835  53.2184  41.3624 0001735  78.0219 282.0968 15.08855751113835,6917.832,95.437,540.897,538.497,0.0
50835.0,STARLINK-3310,PAYLOAD,2024-01-29 09:35:35,15.08838263,0.000178,53.219,37.1966,76.0041,284.1149,0.00043623,6.661e-05,0.0,0 STARLINK-3310,1 50835U 22001AJ  24029.39971252  .00006661  00000-0  43623-3 0  9991,2 50835  53.2190  37.1966 0001780  76.0041 284.1149 15.08838263115234,6917.886,95.438,540.982,538.519,0.0
